INTELSAT 26 (IS-26)     
1 24732U 97007A   20138.06755723  .00000003  00000-0  00000-0 0  9993
2 24732   8.9987  43.1725 0007764 357.4357 282.5450  1.00272999 84996
GALAXY 25 (G-25)        
1 24812U 97026A   20138.19228198  .00000154  00000-0  00000-0 0  9995
2 24812   1.8513  90.6522 0002606 324.5699 282.2139  1.00272851 84097
INTELSAT 5 (IS-5)       
1 24916U 97046A   20138.17640743  .00000090  00000-0  00000-0 0  9993
2 24916   5.6485  65.7359 0004031   4.9039  91.1693  1.00271868 83340
INTELSAT 805 (IS-805)   
1 25371U 98037A   20138.25337889 -.00000285  00000-0  00000-0 0  9990
2 25371   2.3847  87.9878 0009127  90.3063 301.3419  0.99482199 80269
GALAXY 11 (G-11)        
1 26038U 99071A   20138.17231098 -.00000164  00000-0  00000-0 0  9992
2 26038   1.1326  96.7931 0000289 129.9429 337.5205  1.00271818 74806
INTELSAT 9 (IS-9)       
1 26451U 00043A   20138.24285444 -.00000287  00000-0  00000-0 0  9990
2 26451   5.6380  65.9417 0002800 352.8377 214.0542  1.00272787 21868
INTELSAT 12 (IS-12)     
1 26590U 00068A   20138.12896387  .00000011  00000-0  00000-0 0  9996
2 26590   2.8608  86.4614 0006507 357.5478 261.9289  1.00271763 29436
INTELSAT 1R (IS-1R)     
1 26608U 00072A   20138.28299101 -.00000139  00000-0  00000-0 0  9991
2 26608   2.6672  86.5353 0000597 223.9125 183.9758  1.00271633 19040
INTELSAT 10 (IS-10)     
1 26766U 01019A   20138.05157045  .00000123  00000-0  00000-0 0  9995
2 26766   3.8228  79.1748 0002459 357.1912 224.8826  1.00272362 23354
INTELSAT 901 (IS-901)   
1 26824U 01024A   20138.27312148 -.00000204  00000-0  00000-0 0  9998
2 26824   0.0496  89.5590 0000886  36.6808 179.9844  1.00271459   755
INTELSAT 902 (IS-902)   
1 26900U 01039A   20138.24285444 -.00000284  00000-0  00000-0 0  9992
2 26900   0.5466  96.9280 0004105 254.2762 281.5258  1.00272149 68430
DIRECTV 4S              
1 26985U 01052A   20138.30297271 -.00000170  00000-0  00000-0 0  9992
2 26985   0.6335  95.1927 0006069 322.3678 220.7415  0.99263464 29010
INTELSAT 904 (IS-904)   
1 27380U 02007A   20138.23174630 -.00000215  00000-0  00000-0 0  9998
2 27380   1.3866  93.5806 0002683 327.0230 228.6815  1.00269921 29488
INTELSAT 903 (IS-903)   
1 27403U 02016A   20138.30074811  .00000049  00000-0  00000-0 0  9996
2 27403   2.1710  88.5202 0002844 270.0878 204.4243  0.99021100 23392
DIRECTV 5 (TEMPO 1)     
1 27426U 02023A   20138.02016553 -.00000059  00000-0  00000-0 0  9999
2 27426   0.0160 295.6126 0003695 125.5887  71.1197  1.00272067 66058
INTELSAT 905 (IS-905)   
1 27438U 02027A   20138.10905892 -.00000186  00000-0  00000-0 0  9999
2 27438   1.2065  94.4965 0002675 325.2665 190.2744  1.00271415 29094
GALAXY 3C (G-3C)        
1 27445U 02030A   20138.25521730 -.00000154  00000-0  00000-0 0  9997
2 27445   0.0165 302.5487 0002150  36.2086 253.4831  1.00280307 24225
INTELSAT 906 (IS-906)   
1 27513U 02041A   20138.19847573  .00000012  00000-0  00000-0 0  9996
2 27513   0.2100 101.3778 0002256 326.3906 303.1805  1.00271840 64748
INTELSAT 907 (IS-907)   
1 27683U 03007A   20138.21101212 -.00000205  00000-0  00000-0 0  9998
2 27683   0.1556  93.7479 0003109 345.0162 204.9674  1.00272556 63153
GALAXY 12 (G-12)        
1 27715U 03013B   20138.15398233  .00000057  00000-0  00000-0 0  9999
2 27715   1.4225  92.8237 0002002 333.8377  95.0811  1.00272504 29867
GALAXY 23 (G-23)        
1 27854U 03034A   20138.27524507  .00000011  00000-0  00000-0 0  9994
2 27854   0.0033 330.7655 0003003  86.6560 156.1188  1.00272375 61464
GALAXY 13 (HORIZONS 1)  
1 27954U 03044A   20138.01685057  .00000046  00000-0  00000-0 0  9994
2 27954   0.0411 106.1043 0002492  85.6823 282.4336  1.00269922 24295
DIRECTV 7S              
1 28238U 04016A   20138.28429781 -.00000001  00000-0  00000-0 0  9991
2 28238   0.0293  92.6675 0003227 334.2361 151.8146  1.00272314 58784
INTELSAT 10-02          
1 28358U 04022A   20138.20719266 -.00000013  00000-0  00000-0 0  9996
2 28358   0.0069  96.6973 0002743 316.5825 255.6864  1.00273276 58376
XM-3 (RHYTHM)           
1 28626U 05008A   20138.17643693 -.00000208  00000-0  00000-0 0  9991
2 28626   0.0010  95.2684 0000163 229.7464 248.7578  1.00273469 55783
SPACEWAY 1              
1 28644U 05015A   20138.17920319 -.00000042  00000-0  00000-0 0  9998
2 28644   1.0420  93.9022 0003677   3.8919 122.2306  0.98489521 24290
DIRECTV 8               
1 28659U 05019A   20138.28559361 -.00000118  00000-0  00000-0 0  9999
2 28659   0.0042  18.2058 0002914  36.1781 183.1175  1.00272259 54850
GALAXY 28 (G-28)        
1 28702U 05022A   20138.18200711 -.00000188  00000-0  00000-0 0  9990
2 28702   0.0074 355.8598 0002543  40.1754 175.8294  1.00272811 29830
GALAXY 14 (G-14)        
1 28790U 05030A   20138.27316288  .00000035  00000-0  00000-0 0  9993
2 28790   0.0382  91.6023 0002449 326.5834 150.5854  1.00272360 54033
GALAXY 15 (G-15)        
1 28884U 05041A   20137.97549328  .00000076  00000-0  00000-0 0  9993
2 28884   0.0169 300.9964 0001752 112.2946  40.0156  1.00271485 53461
SPACEWAY 2              
1 28903U 05046B   20138.26547580  .00000102  00000-0  00000-0 0  9991
2 28903   0.1336  90.8159 0000465 320.7053 140.5800  1.00270826 29065
GALAXY 16 (G-16)        
1 29236U 06023A   20137.95063851 -.00000130  00000-0  00000-0 0  9998
2 29236   0.0490 101.6579 0002834 319.4366  57.2363  1.00272725 50989
DIRECTV 9S              
1 29494U 06043A   20138.28495869 -.00000115  00000-0  00000-0 0  9994
2 29494   0.0151 236.6131 0003139 189.1691 171.0311  1.00272137 29121
XM-4 (BLUES)            
1 29520U 06049A   20138.27806160 -.00000025  00000-0  00000-0 0  9999
2 29520   0.0006  80.5767 0000126 295.0823 204.5963  1.00272558 29197
GALAXY 17 (G-17)        
1 31307U 07016B   20138.26410726 -.00000176  00000-0  00000-0 0  9995
2 31307   0.0384  76.0875 0003096 350.4375 172.9797  1.00272889 47672
DIRECTV 10              
1 31862U 07032A   20138.28427226 -.00000105  00000-0  00000-0 0  9996
2 31862   0.0011 303.0494 0000266 213.7051  78.2936  1.00271956 23337
SPACEWAY 3              
1 32018U 07036A   20138.25521775 -.00000153  00000-0  00000-0 0  9998
2 32018   0.0033  97.0671 0000174 322.2027 173.0709  1.00271863 24272
INTELSAT 11 (IS-11)     
1 32253U 07044B   20138.15378826 -.00000271  00000-0  00000-0 0  9995
2 32253   0.0100 309.9133 0001578 127.1334 170.6478  1.00272622 46328
HORIZONS 2              
1 32388U 07063B   20137.98727760 -.00000186  00000-0  00000-0 0  9995
2 32388   0.0140 305.4798 0003134 113.8036 256.1361  1.00272385 45573
DIRECTV 11              
1 32729U 08013A   20138.22866861 -.00000128  00000-0  00000-0 0  9990
2 32729   0.0429  94.5320 0000190  67.9070  56.1058  1.00269020 23316
GALAXY 18 (G-18)        
1 32951U 08024A   20138.27385997  .00000024  00000-0  00000-0 0  9994
2 32951   0.0156 293.4425 0003312 130.8337 146.7259  1.00269294 23616
INTELSAT 25 (IS-25)     
1 33153U 08034A   20138.23174630 -.00000226  00000-0  00000-0 0  9991
2 33153   0.0103 245.4568 0001198 119.3538 282.4913  1.00272339 43456
GALAXY 19 (G-19)        
1 33376U 08045A   20138.22949976 -.00000141  00000-0  00000-0 0  9998
2 33376   0.0119 298.6325 0002933 124.8579 157.5115  1.00269347 42668
SIRIUS FM-5             
1 35493U 09034A   20138.25737139 -.00000202  00000-0  00000-0 0  9996
2 35493   0.0209 296.8962 0001143  83.3732 221.6584  1.00273002 24429
INTELSAT 14 (IS-14)     
1 36097U 09064A   20138.23729750 -.00000275  00000-0  00000-0 0  9998
2 36097   0.0196 283.9619 0002687 143.4935 208.3760  1.00272866 38428
INTELSAT 15 (IS-15)     
1 36106U 09067A   20138.05915998 -.00000189  00000-0  00000-0 0  9997
2 36106   0.0188  31.1962 0002275  31.4183 279.0493  1.00272300 38317
DIRECTV 12              
1 36131U 09075A   20138.28427177 -.00000105  00000-0  00000-0 0  9994
2 36131   0.0355 134.3774 0000044  60.6243  39.9836  1.00271751 24319
INTELSAT 16 (IS-16)     
1 36397U 10006A   20138.23993682 -.00000247  00000-0  00000-0 0  9995
2 36397   0.0333  82.0605 0002035 340.7937 182.7210  1.00271866 37588
XM-5                    
1 37185U 10053A   20138.05674060 -.00000208  00000-0  00000-0 0  9996
2 37185   0.0192 291.0006 0002232 112.3694 127.0638  1.00271891 35229
INTELSAT 17 (IS-17)     
1 37238U 10065B   20138.05532160 -.00000005  00000-0  00000-0 0  9997
2 37238   0.0213 269.5063 0002294 140.2099 271.3982  1.00271765 31155
INTELSAT NEW DAWN       
1 37392U 11016A   20138.19228198  .00000153  00000-0  00000-0 0  9996
2 37392   0.0171 206.2716 0000175 255.7094 235.3805  1.00273626 31023
INTELSAT 18 (IS-18)     
1 37834U 11056A   20138.27243309  .00000051  00000-0  00000-0 0  9998
2 37834   0.0162 291.0876 0003376 144.6495  77.7641  1.00271992 31659
INTELSAT 22 (IS-22)     
1 38098U 12011A   20138.12833806 -.00000062  00000-0  00000-0 0  9997
2 38098   0.0119 328.2368 0002562 104.5282 280.8248  1.00272008 29542
INTELSAT 19 (IS-19)     
1 38356U 12030A   20138.28400538 -.00000059  00000-0  00000-0 0  9990
2 38356   0.0309  76.5048 0002941 347.4290  79.7422  1.00271846 28183
INTELSAT 20 (IS-20)     
1 38740U 12043A   20138.05584501 -.00000028  00000-0  00000-0 0  9995
2 38740   0.0047 288.1129 0001591 268.4280 127.2788  1.00272160 28466
INTELSAT 21 (IS-21)     
1 38749U 12045A   20138.24883633 -.00000287  00000-0  00000-0 0  9992
2 38749   0.0181 287.7622 0001989 135.6220 203.6043  1.00269381 28269
INTELSAT 23 (IS-23)     
1 38867U 12057A   20138.25157198 -.00000287  00000-0  00000-0 0  9997
2 38867   0.0021  87.6159 0001919 327.6255 217.7519  1.00271697 27726
SIRIUS FM-6             
1 39360U 13058A   20138.21896123 -.00000019  00000-0  00000-0 0  9995
2 39360   0.0220 297.9343 0000964 341.5917 278.5278  1.00271981 23882
INTELSAT 30 (IS-30)     
1 40271U 14062A   20137.80783332 -.00000154  00000-0  00000-0 0  9995
2 40271   0.0184 291.2603 0001611 155.3190 344.1526  1.00270461 20485
INTELSAT 34 (IS-34)     
1 40874U 15039A   20138.25630097 -.00000287  00000-0  00000-0 0  9995
2 40874   0.0164 299.0507 0000320 346.4274 346.7154  1.00273017 17394
INTELSAT 31 (IS-31)     
1 41581U 16035A   20138.21646897 -.00000153  00000-0  00000-0 0  9991
2 41581   0.0146 256.6399 0002407 313.9025   7.7050  1.00272847 14362
INTELSAT 36 (IS-36)     
1 41747U 16053A   20138.12896387 -.00000027  00000-0  00000-0 0  9996
2 41747   0.0120 344.2851 0001254  18.3552 347.5607  1.00272161 13681
INTELSAT 33E (IS-33E)   
1 41748U 16053B   20138.06981198  .00000046  00000-0  00000-0 0  9995
2 41748   0.0309  16.0834 0001905  24.3677 279.8836  1.00273716 13963
INTELSAT 32E (IS-32E)   
1 41945U 17007B   20138.23729750 -.00000271  00000-0  00000-0 0  9998
2 41945   0.0164 298.4836 0000215   9.7797 329.3834  1.00270434 11952
INTELSAT 35E (IS-35E)   
1 42818U 17041A   20138.13174471 -.00000240  00000-0  00000-0 0  9995
2 42818   0.0260 194.7609 0002231 227.6722 185.7913  1.00272993 10597
INTELSAT 37E (IS-37E)   
1 42950U 17059A   20138.06021507 -.00000144  00000-0  00000-0 0  9997
2 42950   0.0143 291.7798 0002532 139.8918 167.2230  1.00269397  9775
AZERSPACE 2 (IS-38)     
1 43632U 18074A   20137.89841806  .00000133  00000-0  00000-0 0  9992
2 43632   0.0184 285.3515 0001331 149.6327 168.6285  1.00271009  6228
HORIZONS 3E             
1 43633U 18074B   20137.92827365 -.00000034  00000-0  00000-0 0  9992
2 43633   0.0100  46.6987 0000396 241.8666  89.7071  1.00273204  6066
INTELSAT 39 (IS-39)     
1 44476U 19049B   20138.05453649  .00000029  00000-0  00000-0 0  9999
2 44476   0.0128 297.7182 0000392 333.3408  45.7380  1.00275137  2894
